KUIPER-00169            
1 65782U 25217W   25284.24855730  .00031376  00000+0  87794-3 0  9997
2 65782  51.8737   6.4254 0003205 120.4880 239.6424 15.36375687  2435
KUIPER-00170            
1 65783U 25217X   25284.25766630  .00034275  00000+0  98475-3 0  9998
2 65783  51.8685   6.4865 0006712 147.6905 212.4494 15.35488717  2435
KUIPER-00171            
1 65784U 25217Y   25284.25248572  .00025096  00000+0  71225-3 0  9994
2 65784  51.8695   6.4527 0004802 139.3523 220.7822 15.36047138  2430
KUIPER-00172            
1 65785U 25217Z   25284.24429296  .00045497  00000+0  12492-2 0  9995
2 65785  51.8742   6.3983 0002343  91.9877 268.1378 15.36789700  2432
KUIPER-00173            
1 65786U 25217AA  25284.24661326  .00020259  00000+0  56809-3 0  9998
2 65786  51.8726   6.4145 0002792 110.2142 249.9145 15.36563244  2436
KUIPER-00174            
1 65787U 25217AB  25284.24129830  .00030486  00000+0  83605-3 0  9995
2 65787  51.8748   6.3761 0002521  53.4812 306.6407 15.37017900  2432
KUIPER-00176            
1 65788U 25217AC  25284.24380217  .00047112  00000+0  12916-2 0  9994
2 65788  51.8736   6.3960 0001990  83.2247 276.8966 15.36820687  2434
STARLINK-35330          
1 65791U 25218A   25284.25002315 -.02384764  00000+0 -31600-1 0  9991
2 65791  97.6024 144.3645 0002113 106.4148 158.7064 15.61664239  3621
STARLINK-35373          
1 65792U 25218B   25284.25002315 -.02390061  00000+0 -31678-1 0  9994
2 65792  97.6024 144.3659 0002081 103.4925 163.5512 15.61666443  3622
STARLINK-35383          
1 65793U 25218C   25284.25002315 -.02388819  00000+0 -31662-1 0  9996
2 65793  97.6024 144.3677 0002003 103.4799 167.4073 15.61664734  3622
STARLINK-35378          
1 65794U 25218D   25284.25002315 -.02369237  00000+0 -31384-1 0  9991
2 65794  97.6022 144.3675 0002144 100.5221 172.2940 15.61648458  3377
STARLINK-35406          
1 65795U 25218E   25284.25002315 -.02386702  00000+0 -31631-1 0  9993
2 65795  97.6024 144.3661 0002011 105.1583 163.8078 15.61663926  3623
STARLINK-35390          
1 65796U 25218F   25284.25002315 -.02387855  00000+0 -31647-1 0  9991
2 65796  97.6025 144.3706 0002038 102.3716 174.2752 15.61665183  3522
STARLINK-35412          
1 65797U 25218G   25284.25002315 -.02382172  00000+0 -31567-1 0  9990
2 65797  97.6024 144.3706 0002098 105.1906 173.3813 15.61659402  3626
STARLINK-35414          
1 65798U 25218H   25284.25002315 -.02385525  00000+0 -31615-1 0  9990
2 65798  97.6024 144.3701 0001992 106.5442 168.1845 15.61662793  3628
STARLINK-35357          
1 65799U 25218J   25284.25002315 -.02383753  00000+0 -31588-1 0  9991
2 65799  97.6023 144.3722 0002129 103.1280 179.2828 15.61661456  3626
STARLINK-35300          
1 65800U 25218K   25284.25002315 -.02382281  00000+0 -31567-1 0  9996
2 65800  97.6025 144.3708 0001988 101.2139 179.2757 15.61661902  3480
STARLINK-35296          
1 65801U 25218L   25284.25002315 -.02384278  00000+0 -31596-1 0  9997
2 65801  97.6022 144.3735 0002062 106.3450 179.9071 15.61662002  3628
STARLINK-34919          
1 65802U 25218M   25284.25002315 -.02383907  00000+0 -31591-1 0  9991
2 65802  97.6024 144.3730 0002102 102.8649 181.4674 15.61661263  3627
STARLINK-35286          
1 65803U 25218N   25284.25002315 -.02386615  00000+0 -31629-1 0  9993
2 65803  97.6021 144.3748 0002084 103.9398 184.2314 15.61663862  3625
STARLINK-35266          
1 65804U 25218P   25284.25002315 -.02383827  00000+0 -31590-1 0  9993
2 65804  97.6021 144.3754 0001954  99.4182 190.6760 15.61662722  3628
STARLINK-35273          
1 65805U 25218Q   25284.25002315 -.02390302  00000+0 -31684-1 0  9994
2 65805  97.6021 144.3753 0001973 103.0807 188.9324 15.61665747  3621
STARLINK-35047          
1 65806U 25218R   25284.25002315 -.02256550  00000+0 -29831-1 0  9992
2 65806  97.6018 144.3776 0001539  63.0860 232.8584 15.61538241  3620
STARLINK-35285          
1 65807U 25218S   25284.25002315 -.02384673  00000+0 -31603-1 0  9991
2 65807  97.6024 144.3767 0001997 103.2768 190.6579 15.61662052  3623
STARLINK-34580          
1 65808U 25218T   25284.25002315 -.02384747  00000+0 -31605-1 0  9996
2 65808  97.6021 144.3793 0001853 101.0740 196.7020 15.61663199  3628
STARLINK-35289          
1 65809U 25218U   25284.25002315 -.02383218  00000+0 -31581-1 0  9992
2 65809  97.6022 144.3793 0001928 100.6049 199.0900 15.61662938  3522
STARLINK-35268          
1 65810U 25218V   25284.25002315 -.02386548  00000+0 -31628-1 0  9995
2 65810  97.6021 144.3808 0001999 104.1807 199.3545 15.61664735  3625
STARLINK-35224          
1 65811U 25218W   25284.25002315 -.02385581  00000+0 -31615-1 0  9998
2 65811  97.6023 144.3802 0001976 101.1908 200.4253 15.61663594  3426
STARLINK-35271          
1 65812U 25218X   25284.25002315 -.02386556  00000+0 -31629-1 0  9997
2 65812  97.6022 144.3818 0001962 102.2463 203.2102 15.61664345  3627
STARLINK-35215          
1 65813U 25218Y   25284.25002315 -.02385437  00000+0 -31614-1 0  9999
2 65813  97.6020 144.3831 0001929 103.1378 204.2398 15.61663676  3623
STARLINK-35157          
1 65814U 25218Z   25284.25002315 -.02383787  00000+0 -31592-1 0  9991
2 65814  97.6019 144.3833 0001840 103.8396 205.4610 15.61661600  3628
FENGYUN 3H              
1 65815U 25219A   25284.29443473  .00000022  00000+0  30750-4 0  9993
2 65815  98.6479 225.2795 0001509  84.9089 275.2260 14.19877089  2061
CZ-4C R/B               
1 65816U 25219B   25284.32113289  .00000816  00000+0  19237-3 0  9994
2 65816  98.6340 226.0360 0121289 358.1852   1.8887 14.52825676  2114
HULIANWANG DIGUI-82     
1 65817U 25220A   25280.88296797  .00000039  00000+0  25800-4 0  9991
2 65817  86.4949 129.6606 0009464 185.7702 174.3350 13.68810511  1426
HULIANWANG DIGUI-83     
1 65818U 25220B   25280.88253443  .00000053  00000+0  42001-4 0  9991
2 65818  86.4965 129.6642 0009119 185.6212 174.4847 13.68863866  1420
HULIANWANG DIGUI-84     
1 65819U 25220C   25282.92944682  .00000035  00000+0  22218-4 0  9999
2 65819  86.4881 128.9029 0008296 172.9700 187.1576 13.67712113  1703
HULIANWANG DIGUI-85     
1 65820U 25220D   25281.46522918  .00000048  00000+0  37114-4 0  9998
2 65820  86.4932 129.4418 0008247 165.7195 194.4199 13.68595682  1505
HULIANWANG DIGUI-86     
1 65821U 25220E   25284.31755382  .00000029  00000+0  15099-4 0  9996
2 65821  86.4961 128.4065 0007995 162.5447 197.5987 13.67264920  1897
CZ-6A R/B               
1 65822U 25220F   25284.28461103  .00000034  00000+0  10592-4 0  9997
2 65822  86.5054 128.2205 0105908  72.6356 288.6367 13.94169905  1924
STARLINK-35392          
1 65823U 25221A   25284.27800655 -.00667407  00000+0 -38543-2 0  9996
2 65823  53.1558  66.9330 0004346 334.2950  25.7855 15.79640822  3147
STARLINK-35281          
1 65824U 25221B   25284.27757079 -.00689067  00000+0 -40085-2 0  9998
2 65824  53.1562  66.9314 0004018 332.8420  27.2391 15.79540571  3149
STARLINK-35397          
1 65825U 25221C   25283.89723066 -.00712219  00000+0 -39034-2 0  9993
2 65825  53.1555  68.8240 0000869  39.8852 320.2234 15.80920689  3083
STARLINK-35381          
1 65826U 25221D   25283.83440743 -.00542201  00000+0 -28649-2 0  9998
2 65826  53.1552  69.1427 0000668 347.7475  12.3531 15.81281843  3072
STARLINK-35393          
1 65827U 25221E   25284.27266032 -.02643112  00000+0 -16919-1 0  9996
2 65827  53.1559  66.8962 0005911 336.6898  23.3855 15.79296224  3145
STARLINK-35396          
1 65828U 25221F   25283.83356379 -.00735059  00000+0 -40050-2 0  9996
2 65828  53.1552  69.1382 0000833  19.4040 340.7014 15.81104543  3074
STARLINK-35244          
1 65829U 25221G   25284.30861054 -.00708085  00000+0 -61415-2 0  9998
2 65829  53.1592  67.1400 0001348 359.1829   0.9187 15.70523162  3109
STARLINK-35368          
1 65830U 25221H   25283.83228367 -.00698602  00000+0 -38186-2 0  9993
2 65830  53.1553  69.1291 0001637  27.5184 332.5925 15.80937585  3034
STARLINK-35337          
1 65831U 25221J   25284.27558412  .00396252  00000+0  18741-2 0  9999
2 65831  53.1555  66.9162 0009561 260.0510  99.9434 15.81358732  3143
STARLINK-35277          
1 65832U 25221K   25283.83272531 -.00592705  00000+0 -31786-2 0  9993
2 65832  53.1548  69.1328 0001842  18.7017 341.4073 15.81081353  3077
STARLINK-35345          
1 65833U 25221L   25284.27433796 -.02360554  00000+0 -14625-1 0  9994
2 65833  53.1548  66.9055 0001668 337.8204  22.2746 15.79642647  3144
STARLINK-35320          
1 65834U 25221M   25284.27348477 -.02606124  00000+0 -16532-1 0  9991
2 65834  53.1552  66.9003 0004210 344.4610  15.6282 15.79469523  1794
STARLINK-35349          
1 65835U 25221N   25284.27391269 -.02570218  00000+0 -16182-1 0  9994
2 65835  53.1550  66.9025 0003799 340.0006  20.0867 15.79583156  1797
STARLINK-35356          
1 65836U 25221P   25283.83053560 -.00670696  00000+0 -36924-2 0  9991
2 65836  53.1553  69.1158 0000608 352.9340   7.1674 15.80720728  1727
STARLINK-35314          
1 65837U 25221Q   25284.27185399 -.02460252  00000+0 -15704-1 0  9996
2 65837  53.1556  66.8913 0003526 332.3217  27.7617 15.79118677  1795
STARLINK-35324          
1 65838U 25221R   25284.27226148 -.02466197  00000+0 -15708-1 0  9993
2 65838  53.1555  66.8929 0003894 339.8126  20.2741 15.79168440  1790
STARLINK-35102          
1 65839U 25221S   25284.20812851  .00759285  00000+0  34929-2 0  9995
2 65839  53.1550  67.2038 0009608 248.7884 111.2113 15.81037034  1780
STARLINK-35364          
1 65840U 25221T   25284.20770364  .00451725  00000+0  21835-2 0  9999
2 65840  53.1559  67.1992 0009079 233.4089 126.6098 15.80747977  1784
STARLINK-35238          
1 65841U 25221U   25283.76423451 -.00823132  00000+0 -46871-2 0  9996
2 65841  53.1544  69.4121 0001476  20.8167 339.2915 15.80371933  1714
STARLINK-35298          
1 65842U 25221V   25284.27061690 -.02469214  00000+0 -15999-1 0  9992
2 65842  53.1555  66.8820 0005249 334.8255  25.2510 15.78773843  1796
